start=new Date('2021-10-24T00:00:00.000Z').valueOf();
sats=[{"TLE_LINE1":"1 48356U 21038D   21296.62590254  .00001573  00000-0  12452-3 0  9996","RCS_SIZE":"LARGE","ECCENTRICITY":"0.00016300","SEMIMAJOR_AXIS":"6925.360","RA_OF_ASC_NODE":"335.5577","PERIOD":"95.592","EPOCH":"2021-10-23T15:01:17.979456","TLE_LINE2":"2 48356  53.0660 335.5577 0001630  63.4789 296.6367 15.06396218 26165","MEAN_MOTION_DOT":"0.00001573","OBJECT_TYPE":"PAYLOAD","MEAN_ELEMENT_THEORY":"SGP4","PERIAPSIS":"546.096","LAUNCH_DATE":"2021-05-04","REV_AT_EPOCH":"2616","TIME_SYSTEM":"UTC","MEAN_MOTION":"15.06396218","MEAN_MOTION_DDOT":"0.0000000000000","DECAY_DATE":null,"OBJECT_ID":"2021-038D","ARG_OF_PERICENTER":"63.4789","SITE":"AFETR","OBJECT_NAME":"STARLINK-2637","ELEMENT_SET_NO":"999","FILE":"3181152","APOAPSIS":"548.354","EPHEMERIS_TYPE":"0","CENTER_NAME":"EARTH","INCLINATION":"53.0660","CLASSIFICATION_TYPE":"U","MEAN_ANOMALY":"296.6367","NORAD_CAT_ID":"48356","COUNTRY_CODE":"US","BSTAR":"0.00012452000000","REF_FRAME":"TEME","GP_ID":"188024143"},{"TLE_LINE2":"2 48357  53.0562 335.6152 0001159  84.3127 275.7994 15.06397742 26168","EPOCH":"2021-10-23T14:55:58.417824","MEAN_MOTION_DOT":"0.00001580","OBJECT_TYPE":"PAYLOAD","REV_AT_EPOCH":"2616","PERIAPSIS":"546.418","MEAN_ELEMENT_THEORY":"SGP4","LAUNCH_DATE":"2021-05-04","RCS_SIZE":"LARGE","ECCENTRICITY":"0.00011590","SEMIMAJOR_AXIS":"6925.355","TLE_LINE1":"1 48357U 21038E   21296.62220391  .00001580  00000-0  12495-3 0  9994","RA_OF_ASC_NODE":"335.6152","PERIOD":"95.592","EPHEMERIS_TYPE":"0","INCLINATION":"53.0562","CLASSIFICATION_TYPE":"U","CENTER_NAME":"EARTH","COUNTRY_CODE":"US","NORAD_CAT_ID":"48357","MEAN_ANOMALY":"275.7994","GP_ID":"188024895","REF_FRAME":"TEME","BSTAR":"0.00012495000000","TIME_SYSTEM":"UTC","DECAY_DATE":null,"OBJECT_ID":"2021-038E","MEAN_MOTION":"15.06397742","MEAN_MOTION_DDOT":"0.0000000000000","ARG_OF_PERICENTER":"84.3127","SITE":"AFETR","OBJECT_NAME":"STARLINK-2636","FILE":"3181152","ELEMENT_SET_NO":"999","APOAPSIS":"548.023"},{"EPOCH":"2021-10-23T13:15:07.079328","TLE_LINE2":"2 48358  53.0530 335.9400 0001192  74.9836 285.1285 15.06401145 26141","OBJECT_TYPE":"PAYLOAD","MEAN_MOTION_DOT":"0.00001677","LAUNCH_DATE":"2021-05-04","PERIAPSIS":"546.385","MEAN_ELEMENT_THEORY":"SGP4","REV_AT_EPOCH":"2614","TLE_LINE1":"1 48358U 21038F   21296.55216527  .00001677  00000-0  13147-3 0  9995","ECCENTRICITY":"0.00011920","RCS_SIZE":"LARGE","SEMIMAJOR_AXIS":"6925.345","RA_OF_ASC_NODE":"335.9400","PERIOD":"95.592","EPHEMERIS_TYPE":"0","CENTER_NAME":"EARTH","CLASSIFICATION_TYPE":"U","INCLINATION":"53.0530","MEAN_ANOMALY":"285.1285","NORAD_CAT_ID":"48358","COUNTRY_CODE":"US","BSTAR":"0.00013147000000","GP_ID":"188025645","REF_FRAME":"TEME","TIME_SYSTEM":"UTC","MEAN_MOTION_DDOT":"0.0000000000000","MEAN_MOTION":"15.06401145","OBJECT_ID":"2021-038F","DECAY_DATE":null,"ARG_OF_PERICENTER":"74.9836","SITE":"AFETR","FILE":"3181152","ELEMENT_SET_NO":"999","APOAPSIS":"548.036","OBJECT_NAME":"STARLINK-2624"},{"MEAN_MOTION_DOT":"0.00001322","OBJECT_TYPE":"PAYLOAD","EPOCH":"2021-10-23T14:45:20.334816","TLE_LINE2":"2 48359  53.0565 335.6470 0001306  81.0066 279.1071 15.06393375 26157","PERIAPSIS":"546.329","MEAN_ELEMENT_THEORY":"SGP4","LAUNCH_DATE":"2021-05-04","REV_AT_EPOCH":"2615","RA_OF_ASC_NODE":"335.6470","TLE_LINE1":"1 48359U 21038G   21296.61481869  .00001322  00000-0  10762-3 0  9993","RCS_SIZE":"LARGE","ECCENTRICITY":"0.00013060","SEMIMAJOR_AXIS":"6925.369","PERIOD":"95.593","CENTER_NAME":"EARTH","INCLINATION":"53.0565","CLASSIFICATION_TYPE":"U","EPHEMERIS_TYPE":"0","BSTAR":"0.00010762000000","REF_FRAME":"TEME","GP_ID":"188024393","NORAD_CAT_ID":"48359","MEAN_ANOMALY":"279.1071","COUNTRY_CODE":"US","MEAN_MOTION":"15.06393375","MEAN_MOTION_DDOT":"0.0000000000000","DECAY_DATE":null,"OBJECT_ID":"2021-038G","TIME_SYSTEM":"UTC","OBJECT_NAME":"STARLINK-2628","APOAPSIS":"548.138","FILE":"3181152","ELEMENT_SET_NO":"999","SITE":"AFETR","ARG_OF_PERICENTER":"81.0066"},{"MEAN_ELEMENT_THEORY":"SGP4","PERIAPSIS":"546.442","LAUNCH_DATE":"2021-05-04","REV_AT_EPOCH":"2615","MEAN_MOTION_DOT":"0.00001602","OBJECT_TYPE":"PAYLOAD","EPOCH":"2021-10-23T14:40:03.931104","TLE_LINE2":"2 48360  53.0557 335.6573 0001164  66.2481 293.8630 15.06388632 26156","PERIOD":"95.593","RA_OF_ASC_NODE":"335.6573","TLE_LINE1":"1 48360U 21038H   21296.61115661  .00001602  00000-0  12647-3 0  9994","SEMIMAJOR_AXIS":"6925.383","RCS_SIZE":"LARGE","ECCENTRICITY":"0.00011640","BSTAR":"0.00012647000000","GP_ID":"188024643","REF_FRAME":"TEME","NORAD_CAT_ID":"48360","MEAN_ANOMALY":"293.8630","COUNTRY_CODE":"US","CENTER_NAME":"EARTH","INCLINATION":"53.0557","CLASSIFICATION_TYPE":"U","EPHEMERIS_TYPE":"0","OBJECT_NAME":"STARLINK-2622","APOAPSIS":"548.055","FILE":"3181152","ELEMENT_SET_NO":"999","ARG_OF_PERICENTER":"66.2481","SITE":"AFETR","MEAN_MOTION":"15.06388632","MEAN_MOTION_DDOT":"0.0000000000000","DECAY_DATE":null,"OBJECT_ID":"2021-038H","TIME_SYSTEM":"UTC"},{"PERIOD":"95.592","TLE_LINE1":"1 48361U 21038J   21296.40840140  .00001342  00000-0  10898-3 0  9996","SEMIMAJOR_AXIS":"6925.335","RCS_SIZE":"LARGE","ECCENTRICITY":"0.00011990","RA_OF_ASC_NODE":"336.6537","MEAN_ELEMENT_THEORY":"SGP4","PERIAPSIS":"546.370","LAUNCH_DATE":"2021-05-04","REV_AT_EPOCH":"2612","EPOCH":"2021-10-23T09:48:05.880960","TLE_LINE2":"2 48361  53.0557 336.6537 0001199  85.9587 274.1539 15.06404347 26120","MEAN_MOTION_DOT":"0.00001342","OBJECT_TYPE":"PAYLOAD","SITE":"AFETR","ARG_OF_PERICENTER":"85.9587","OBJECT_NAME":"STARLINK-2591","FILE":"3181152","APOAPSIS":"548.031","ELEMENT_SET_NO":"999","TIME_SYSTEM":"UTC","MEAN_MOTION":"15.06404347","MEAN_MOTION_DDOT":"0.0000000000000","DECAY_DATE":null,"OBJECT_ID":"2021-038J","NORAD_CAT_ID":"48361","MEAN_ANOMALY":"274.1539","COUNTRY_CODE":"US","BSTAR":"0.00010898000000","REF_FRAME":"TEME","GP_ID":"188025395","EPHEMERIS_TYPE":"0","CENTER_NAME":"EARTH","INCLINATION":"53.0557","CLASSIFICATION_TYPE":"U"},{"PERIOD":"95.697","RA_OF_ASC_NODE":"335.7583","SEMIMAJOR_AXIS":"6930.395","RCS_SIZE":"LARGE","ECCENTRICITY":"0.00009670","TLE_LINE1":"1 48362U 21038K   21296.55751296  .00001524  00000-0  12631-3 0  9995","REV_AT_EPOCH":"2615","PERIAPSIS":"551.589","MEAN_ELEMENT_THEORY":"SGP4","LAUNCH_DATE":"2021-05-04","MEAN_MOTION_DOT":"0.00001524","OBJECT_TYPE":"PAYLOAD","TLE_LINE2":"2 48362  53.0554 335.7583 0000967  78.9157 281.1940 15.04755056 26157","EPOCH":"2021-10-23T13:22:49.119744","OBJECT_NAME":"STARLINK-2578","FILE":"3181152","ELEMENT_SET_NO":"999","APOAPSIS":"552.930","ARG_OF_PERICENTER":"78.9157","SITE":"AFETR","DECAY_DATE":null,"OBJECT_ID":"2021-038K","MEAN_MOTION":"15.04755056","MEAN_MOTION_DDOT":"0.0000000000000","TIME_SYSTEM":"UTC","REF_FRAME":"TEME","GP_ID":"188025146","BSTAR":"0.00012631000000","COUNTRY_CODE":"US","MEAN_ANOMALY":"281.1940","NORAD_CAT_ID":"48362","INCLINATION":"53.0554","CLASSIFICATION_TYPE":"U","CENTER_NAME":"EARTH","EPHEMERIS_TYPE":"0"},{"COUNTRY_CODE":"US","MEAN_ANOMALY":"275.4442","NORAD_CAT_ID":"48363","GP_ID":"188023894","REF_FRAME":"TEME","BSTAR":"0.00007006500000","EPHEMERIS_TYPE":"0","INCLINATION":"53.0563","CLASSIFICATION_TYPE":"U","CENTER_NAME":"EARTH","SITE":"AFETR","ARG_OF_PERICENTER":"84.6683","OBJECT_NAME":"STARLINK-2626","FILE":"3181152","ELEMENT_SET_NO":"999","APOAPSIS":"548.088","TIME_SYSTEM":"UTC","DECAY_DATE":null,"OBJECT_ID":"2021-038L","MEAN_MOTION":"15.06383668","MEAN_MOTION_DDOT":"0.0000000000000","REV_AT_EPOCH":"2621","PERIAPSIS":"546.439","MEAN_ELEMENT_THEORY":"SGP4","LAUNCH_DATE":"2021-05-04","TLE_LINE2":"2 48363  53.0563 331.0790 0001190  84.6683 275.4442 15.06383668 26212","EPOCH":"2021-10-23T12:25:23.227680","MEAN_MOTION_DOT":"0.00000762","OBJECT_TYPE":"PAYLOAD","PERIOD":"95.593","ECCENTRICITY":"0.00011900","RCS_SIZE":"LARGE","SEMIMAJOR_AXIS":"6925.399","TLE_LINE1":"1 48363U 21038L   21296.51762995  .00000762  00000-0  70065-4 0  9999","RA_OF_ASC_NODE":"331.0790"},{"INCLINATION":"53.0566","CLASSIFICATION_TYPE":"U","CENTER_NAME":"EARTH","EPHEMERIS_TYPE":"0","GP_ID":"188024144","REF_FRAME":"TEME","BSTAR":"0.00012170000000","COUNTRY_CODE":"US","NORAD_CAT_ID":"48364","MEAN_ANOMALY":"284.6928","DECAY_DATE":null,"OBJECT_ID":"2021-038M","MEAN_MOTION":"15.06398986","MEAN_MOTION_DDOT":"0.0000000000000","TIME_SYSTEM":"UTC","OBJECT_NAME":"STARLINK-2611","APOAPSIS":"547.978","FILE":"3181152","ELEMENT_SET_NO":"999","ARG_OF_PERICENTER":"75.4183","SITE":"AFETR","MEAN_MOTION_DOT":"0.00001532","OBJECT_TYPE":"PAYLOAD","TLE_LINE2":"2 48364  53.0566 331.1004 0001099  75.4183 284.6928 15.06398986 26216","EPOCH":"2021-10-23T12:18:41.641344","REV_AT_EPOCH":"2621","PERIAPSIS":"546.456","MEAN_ELEMENT_THEORY":"SGP4","LAUNCH_DATE":"2021-05-04","RA_OF_ASC_NODE":"331.1004","RCS_SIZE":"LARGE","SEMIMAJOR_AXIS":"6925.352","ECCENTRICITY":"0.00010990","TLE_LINE1":"1 48364U 21038M   21296.51298196  .00001532  00000-0  12170-3 0  9995","PERIOD":"95.592"},{"OBJECT_NAME":"STARLINK-2608","APOAPSIS":"548.181","FILE":"3181152","ELEMENT_SET_NO":"999","ARG_OF_PERICENTER":"93.3025","SITE":"AFETR","MEAN_MOTION":"15.06389586","MEAN_MOTION_DDOT":"0.0000000000000","DECAY_DATE":null,"OBJECT_ID":"2021-038N","TIME_SYSTEM":"UTC","BSTAR":"0.00011805000000","GP_ID":"188024896","REF_FRAME":"TEME","NORAD_CAT_ID":"48365","MEAN_ANOMALY":"266.8118","COUNTRY_CODE":"US","CENTER_NAME":"EARTH","INCLINATION":"53.0570","CLASSIFICATION_TYPE":"U","EPHEMERIS_TYPE":"0","PERIOD":"95.593","RA_OF_ASC_NODE":"331.2003","TLE_LINE1":"1 48365U 21038N   21296.49182790  .00001477  00000-0  11805-3 0  9997","RCS_SIZE":"LARGE","SEMIMAJOR_AXIS":"6925.380","ECCENTRICITY":"0.00013510","PERIAPSIS":"546.310","MEAN_ELEMENT_THEORY":"SGP4","LAUNCH_DATE":"2021-05-04","REV_AT_EPOCH":"2621","MEAN_MOTION_DOT":"0.00001477","OBJECT_TYPE":"PAYLOAD","EPOCH":"2021-10-23T11:48:13.930560","TLE_LINE2":"2 48365  53.0570 331.2003 0001351  93.3025 266.8118 15.06389586 26216"}];
